ONEWEB-0151             
1 48066U 21025AA  25258.60457904  .00000136  00000+0  33871-3 0  9995
2 48066  87.9037  14.7657 0001643 103.0783 257.0529 13.13471766217544
ONEWEB-0170             
1 48067U 21025AB  25258.61304690  .00000383  00000+0  10129-2 0  9994
2 48067  87.9041  14.7706 0001341  93.6290 266.4992 13.13470491217505
ONEWEB-0168             
1 48068U 21025AC  25258.59779947 -.00000121  00000+0 -36644-3 0  9996
2 48068  87.9038  14.7551 0001841 105.2782 254.8551 13.13471627217516
ONEWEB-0173             
1 48069U 21025AD  25258.58933648 -.00000259  00000+0 -74524-3 0  9997
2 48069  87.9039  14.7650 0001785 114.9015 245.2300 13.13471075217750
ONEWEB-0171             
1 48070U 21025AE  25258.62659148  .00000314  00000+0  82604-3 0  9992
2 48070  87.9031  14.7932 0001641 101.8700 258.2613 13.13470799217577
ONEWEB-0172             
1 48071U 21025AF  25258.60626891  .00000219  00000+0  56578-3 0  9995
2 48071  87.9041  14.7658 0001717 104.4868 255.6452 13.13471295218465
ONEWEB-0174             
1 48072U 21025AG  25258.58763393 -.00000234  00000+0 -67520-3 0  9990
2 48072  87.9035  14.7814 0001916 101.5403 258.5941 13.13472629217788
ONEWEB-0175             
1 48073U 21025AH  25258.61812431  .00000575  00000+0  15391-2 0  9997
2 48073  87.9036  14.7402 0001455 103.0001 257.1291 13.13470904217442
ONEWEB-0177             
1 48074U 21025AJ  25258.55378941  .00000320  00000+0  84155-3 0  9997
2 48074  87.9041  14.7700 0001887 104.6231 255.5108 13.13470797217620
ONEWEB-0178             
1 48075U 21025AK  25258.26782857 -.00000182  00000+0 -53436-3 0  9997
2 48075  87.9039  14.8727 0001610 108.3025 251.8279 13.13470795217631
ONEWEB-0108             
1 48076U 21025AL  25258.60796688  .00000101  00000+0  24234-3 0  9996
2 48076  87.9036  14.7513 0001877  93.3381 266.7963 13.13471336217608
ONEWEB-0169             
1 48077U 21025AM  25258.56394570  .00000046  00000+0  91105-4 0  9996
2 48077  87.9036  14.7832 0001875  94.2571 265.8772 13.13469633216257
ONEWEB-0176             
1 48210U 21031A   25258.24155400  .00000123  00000+0  29790-3 0  9990
2 48210  87.9081 344.4444 0001720 103.3125 256.8197 13.14503910212192
ONEWEB-0184             
1 48211U 21031B   25258.51906242  .00000025  00000+0  34217-4 0  9991
2 48211  87.9089 344.3614 0001187 123.7787 236.3456 13.14503283212202
ONEWEB-0179             
1 48212U 21031C   25258.48971840 -.00000093  00000+0 -28438-3 0  9998
2 48212  87.9081 344.3828 0001951 102.1145 258.0204 13.14503140212248
ONEWEB-0180             
1 48213U 21031D   25258.59835191  .00000052  00000+0  10603-3 0  9997
2 48213  87.9091 344.3512 0001902 110.0553 250.0781 13.14504572212148
