[{"OBJECT_NAME":"ONEWEB-0151","OBJECT_ID":"2021-025AA","EPOCH":"2025-09-15T14:30:35.629056","MEAN_MOTION":13.13471766,"ECCENTRICITY":0.00016432,"INCLINATION":87.9037,"RA_OF_ASC_NODE":14.7657,"ARG_OF_PERICENTER":103.0783,"MEAN_ANOMALY":257.0529,"EPHEMERIS_TYPE":0,"CLASSIFICATION_TYPE":"U","NORAD_CAT_ID":48066,"ELEMENT_SET_NO":999,"REV_AT_EPOCH":21754,"BSTAR":0.0003387074,"MEAN_MOTION_DOT":1.36e-6,"MEAN_MOTION_DDOT":0},{"OBJECT_NAME":"ONEWEB-0170","OBJECT_ID":"2021-025AB","EPOCH":"2025-09-15T14:42:47.252160","MEAN_MOTION":13.13470491,"ECCENTRICITY":0.00013415,"INCLINATION":87.9041,"RA_OF_ASC_NODE":14.7706,"ARG_OF_PERICENTER":93.629,"MEAN_ANOMALY":266.4992,"EPHEMERIS_TYPE":0,"CLASSIFICATION_TYPE":"U","NORAD_CAT_ID":48067,"ELEMENT_SET_NO":999,"REV_AT_EPOCH":21750,"BSTAR":0.0010129479,"MEAN_MOTION_DOT":3.83e-6,"MEAN_MOTION_DDOT":0},{"OBJECT_NAME":"ONEWEB-0168","OBJECT_ID":"2021-025AC","EPOCH":"2025-09-15T14:20:49.874208","MEAN_MOTION":13.13471627,"ECCENTRICITY":0.00018413,"INCLINATION":87.9038,"RA_OF_ASC_NODE":14.7551,"ARG_OF_PERICENTER":105.2782,"MEAN_ANOMALY":254.8551,"EPHEMERIS_TYPE":0,"CLASSIFICATION_TYPE":"U","NORAD_CAT_ID":48068,"ELEMENT_SET_NO":999,"REV_AT_EPOCH":21751,"BSTAR":-0.00036643991,"MEAN_MOTION_DOT":-1.21e-6,"MEAN_MOTION_DDOT":0},{"OBJECT_NAME":"ONEWEB-0173","OBJECT_ID":"2021-025AD","EPOCH":"2025-09-15T14:08:38.671872","MEAN_MOTION":13.13471075,"ECCENTRICITY":0.00017858,"INCLINATION":87.9039,"RA_OF_ASC_NODE":14.765,"ARG_OF_PERICENTER":114.9015,"MEAN_ANOMALY":245.23,"EPHEMERIS_TYPE":0,"CLASSIFICATION_TYPE":"U","NORAD_CAT_ID":48069,"ELEMENT_SET_NO":999,"REV_AT_EPOCH":21775,"BSTAR":-0.00074524043,"MEAN_MOTION_DOT":-2.59e-6,"MEAN_MOTION_DDOT":0},{"OBJECT_NAME":"ONEWEB-0171","OBJECT_ID":"2021-025AE","EPOCH":"2025-09-15T15:02:17.503872","MEAN_MOTION":13.13470799,"ECCENTRICITY":0.00016417,"INCLINATION":87.9031,"RA_OF_ASC_NODE":14.7932,"ARG_OF_PERICENTER":101.87,"MEAN_ANOMALY":258.2613,"EPHEMERIS_TYPE":0,"CLASSIFICATION_TYPE":"U","NORAD_CAT_ID":48070,"ELEMENT_SET_NO":999,"REV_AT_EPOCH":21757,"BSTAR":0.00082603535,"MEAN_MOTION_DOT":3.14e-6,"MEAN_MOTION_DDOT":0},{"OBJECT_NAME":"ONEWEB-0172","OBJECT_ID":"2021-025AF","EPOCH":"2025-09-15T14:33:01.633824","MEAN_MOTION":13.13471295,"ECCENTRICITY":0.00017174,"INCLINATION":87.9041,"RA_OF_ASC_NODE":14.7658,"ARG_OF_PERICENTER":104.4868,"MEAN_ANOMALY":255.6452,"EPHEMERIS_TYPE":0,"CLASSIFICATION_TYPE":"U","NORAD_CAT_ID":48071,"ELEMENT_SET_NO":999,"REV_AT_EPOCH":21846,"BSTAR":0.00056578483,"MEAN_MOTION_DOT":2.19e-6,"MEAN_MOTION_DDOT":0},{"OBJECT_NAME":"ONEWEB-0174","OBJECT_ID":"2021-025AG","EPOCH":"2025-09-15T14:06:11.571552","MEAN_MOTION":13.13472629,"ECCENTRICITY":0.00019167,"INCLINATION":87.9035,"RA_OF_ASC_NODE":14.7814,"ARG_OF_PERICENTER":101.5403,"MEAN_ANOMALY":258.5941,"EPHEMERIS_TYPE":0,"CLASSIFICATION_TYPE":"U","NORAD_CAT_ID":48072,"ELEMENT_SET_NO":999,"REV_AT_EPOCH":21778,"BSTAR":-0.0006751998,"MEAN_MOTION_DOT":-2.34e-6,"MEAN_MOTION_DDOT":0},{"OBJECT_NAME":"ONEWEB-0175","OBJECT_ID":"2021-025AH","EPOCH":"2025-09-15T14:50:05.940384","MEAN_MOTION":13.13470904,"ECCENTRICITY":0.00014551,"INCLINATION":87.9036,"RA_OF_ASC_NODE":14.7402,"ARG_OF_PERICENTER":103.0001,"MEAN_ANOMALY":257.1291,"EPHEMERIS_TYPE":0,"CLASSIFICATION_TYPE":"U","NORAD_CAT_ID":48073,"ELEMENT_SET_NO":999,"REV_AT_EPOCH":21744,"BSTAR":0.0015390918,"MEAN_MOTION_DOT":5.75e-6,"MEAN_MOTION_DDOT":0},{"OBJECT_NAME":"ONEWEB-0177","OBJECT_ID":"2021-025AJ","EPOCH":"2025-09-15T13:17:27.405024","MEAN_MOTION":13.13470797,"ECCENTRICITY":0.00018872,"INCLINATION":87.9041,"RA_OF_ASC_NODE":14.77,"ARG_OF_PERICENTER":104.6231,"MEAN_ANOMALY":255.5108,"EPHEMERIS_TYPE":0,"CLASSIFICATION_TYPE":"U","NORAD_CAT_ID":48074,"ELEMENT_SET_NO":999,"REV_AT_EPOCH":21762,"BSTAR":0.0008415534,"MEAN_MOTION_DOT":3.2e-6,"MEAN_MOTION_DDOT":0},{"OBJECT_NAME":"ONEWEB-0178","OBJECT_ID":"2021-025AK","EPOCH":"2025-09-15T06:25:40.388448","MEAN_MOTION":13.13470795,"ECCENTRICITY":0.000161,"INCLINATION":87.9039,"RA_OF_ASC_NODE":14.8727,"ARG_OF_PERICENTER":108.3025,"MEAN_ANOMALY":251.8279,"EPHEMERIS_TYPE":0,"CLASSIFICATION_TYPE":"U","NORAD_CAT_ID":48075,"ELEMENT_SET_NO":999,"REV_AT_EPOCH":21763,"BSTAR":-0.00053435779,"MEAN_MOTION_DOT":-1.82e-6,"MEAN_MOTION_DDOT":0},{"OBJECT_NAME":"ONEWEB-0108","OBJECT_ID":"2021-025AL","EPOCH":"2025-09-15T14:35:28.338432","MEAN_MOTION":13.13471336,"ECCENTRICITY":0.00018779,"INCLINATION":87.9036,"RA_OF_ASC_NODE":14.7513,"ARG_OF_PERICENTER":93.3381,"MEAN_ANOMALY":266.7963,"EPHEMERIS_TYPE":0,"CLASSIFICATION_TYPE":"U","NORAD_CAT_ID":48076,"ELEMENT_SET_NO":999,"REV_AT_EPOCH":21760,"BSTAR":0.0002423359,"MEAN_MOTION_DOT":1.01e-6,"MEAN_MOTION_DDOT":0},{"OBJECT_NAME":"ONEWEB-0169","OBJECT_ID":"2021-025AM","EPOCH":"2025-09-15T13:32:04.908480","MEAN_MOTION":13.13469633,"ECCENTRICITY":0.00018757,"INCLINATION":87.9036,"RA_OF_ASC_NODE":14.7832,"ARG_OF_PERICENTER":94.2571,"MEAN_ANOMALY":265.8772,"EPHEMERIS_TYPE":0,"CLASSIFICATION_TYPE":"U","NORAD_CAT_ID":48077,"ELEMENT_SET_NO":999,"REV_AT_EPOCH":21625,"BSTAR":9.1105083e-5,"MEAN_MOTION_DOT":4.6e-7,"MEAN_MOTION_DDOT":0},{"OBJECT_NAME":"ONEWEB-0176","OBJECT_ID":"2021-031A","EPOCH":"2025-09-15T05:47:50.265600","MEAN_MOTION":13.1450391,"ECCENTRICITY":0.00017204,"INCLINATION":87.9081,"RA_OF_ASC_NODE":344.4444,"ARG_OF_PERICENTER":103.3125,"MEAN_ANOMALY":256.8197,"EPHEMERIS_TYPE":0,"CLASSIFICATION_TYPE":"U","NORAD_CAT_ID":48210,"ELEMENT_SET_NO":999,"REV_AT_EPOCH":21219,"BSTAR":0.00029789909,"MEAN_MOTION_DOT":1.23e-6,"MEAN_MOTION_DDOT":0},{"OBJECT_NAME":"ONEWEB-0184","OBJECT_ID":"2021-031B","EPOCH":"2025-09-15T12:27:26.993088","MEAN_MOTION":13.14503283,"ECCENTRICITY":0.00011875,"INCLINATION":87.9089,"RA_OF_ASC_NODE":344.3614,"ARG_OF_PERICENTER":123.7787,"MEAN_ANOMALY":236.3456,"EPHEMERIS_TYPE":0,"CLASSIFICATION_TYPE":"U","NORAD_CAT_ID":48211,"ELEMENT_SET_NO":999,"REV_AT_EPOCH":21220,"BSTAR":3.4217157e-5,"MEAN_MOTION_DOT":2.5e-7,"MEAN_MOTION_DDOT":0},{"OBJECT_NAME":"ONEWEB-0179","OBJECT_ID":"2021-031C","EPOCH":"2025-09-15T11:45:11.669760","MEAN_MOTION":13.1450314,"ECCENTRICITY":0.00019519,"INCLINATION":87.9081,"RA_OF_ASC_NODE":344.3828,"ARG_OF_PERICENTER":102.1145,"MEAN_ANOMALY":258.0204,"EPHEMERIS_TYPE":0,"CLASSIFICATION_TYPE":"U","NORAD_CAT_ID":48212,"ELEMENT_SET_NO":999,"REV_AT_EPOCH":21224,"BSTAR":-0.00028437894,"MEAN_MOTION_DOT":-9.3e-7,"MEAN_MOTION_DDOT":0},{"OBJECT_NAME":"ONEWEB-0180","OBJECT_ID":"2021-031D","EPOCH":"2025-09-15T14:21:37.605024","MEAN_MOTION":13.14504572,"ECCENTRICITY":0.00019026,"INCLINATION":87.9091,"RA_OF_ASC_NODE":344.3512,"ARG_OF_PERICENTER":110.0553,"MEAN_ANOMALY":250.0781,"EPHEMERIS_TYPE":0,"CLASSIFICATION_TYPE":"U","NORAD_CAT_ID":48213,"ELEMENT_SET_NO":999,"REV_AT_EPOCH":21214,"BSTAR":0.00010602562,"MEAN_MOTION_DOT":5.2e-7,"MEAN_MOTION_DDOT":0}]
